SUNSAT (SO-35)          
1 25636U 99008C   24129.60642453  .00000337  00000+0  92664-4 0  9999
2 25636  96.4583 177.0557 0142102 254.7783 103.7665 14.45521870328016
